KAITUO 1B               
1 40912U 15049P   17276.80939904  .00003481  00000-0  17407-3 0  9998
2 40912  97.4526 282.9004 0015452 177.2277 308.7441 15.17995144112766
TIANWANG 1C (TW-1C)     
1 40926U 15051B   17276.79505628  .00015985  00000-0  34443-3 0  9997
2 40926  97.2205 315.5651 0012949 130.1706 341.3451 15.44583369113674
TIANWANG 1B (TW-1B)     
1 40927U 15051C   17276.94558194  .00015680  00000-0  35107-3 0  9991
2 40927  97.2286 315.6834 0012716 138.8106 342.2207 15.43452850113633
TIANWANG 1A (TW-1A)     
1 40928U 15051D   17276.78419434  .00007393  00000-0  20610-3 0  9992
2 40928  97.2179 310.6416 0012976 159.3372 290.3288 15.36973952113373
LAPAN-A2 (IO-86)        
1 40931U 15052B   17276.58909187  .00000775  00000-0  18838-4 0  9991
2 40931   5.9982 179.8187 0013897 336.8525  23.1059 14.76545936109014
LQSAT                   
1 40958U 15057A   17276.86927057  .00000126  00000-0  27349-4 0  9999
2 40958  97.9696 350.2429 0019690  79.1969 281.1443 14.72990044107129
CHUBUSAT-2              
1 41338U 16012B   17276.83635448  .00000675  00000-0  46369-4 0  9993
2 41338  31.0026 142.1879 0013753  54.7016 305.4904 14.99822501 89314
CHUBUSAT-3              
1 41339U 16012C   17276.81642058  .00000815  00000-0  57135-4 0  9996
2 41339  31.0099 141.2860 0013499  60.8764 299.3212 15.00022771 89294
OUFTI-1                 
1 41458U 16025C   17276.93379972  .00003865  00000-0  20838-3 0  9994
2 41458  98.1747 320.7134 0171657 286.1674  72.0716 15.03683213 78922
E-ST@R-II               
1 41459U 16025D   17276.90061533  .00002300  00000-0  12687-3 0  9999
2 41459  98.1756 320.6061 0171549 286.6965  71.5487 15.03484468 78907
AAUSAT 4                
1 41460U 16025E   17276.82886152  .00003760  00000-0  20327-3 0  9995
2 41460  98.1679 320.7070 0164166 284.6781  73.6220 15.04548116 78927
NUSAT 1 (LO-87)         
1 41557U 16033B   17276.77817067  .00002829  00000-0  10779-3 0  9999
2 41557  97.4574 356.2811 0013645 350.8411   9.2577 15.27475059 75004
BEESAT-4                
1 41619U 16040W   17276.74687035  .00002816  00000-0  12913-3 0  9991
2 41619  97.4518 338.0445 0013185  54.2657 305.9803 15.21205398 59098
PRATHAM                 
1 41783U 16059A   17276.71239021  .00000125  00000-0  33661-4 0  9993
2 41783  98.1557 336.8987 0033751 178.3765 181.7552 14.62864449 54466
ALSAT 1N                
1 41789U 16059G   17273.67223976 -.00000048  00000-0  20983-6 0  9993
2 41789  98.1565 334.5978 0028730 180.4198 179.6976 14.64080625 54049
NAYIF-1 (EO-88)         
1 42017U 17008BX  17276.76493346  .00003150  00000-0  13516-3 0  9993
2 42017  97.4846 337.9710 0006342 186.5149 173.6007 15.23456377 35019
LILACSAT-1              
1 42725U 98067ME  17276.86047823  .00027946  00000-0  36511-3 0  9998
2 42725  51.6390 214.6508 0005708  10.3859 349.7250 15.58416874 20425
MAX VALIER SAT          
1 42778U 17036P   17276.80608700  .00002093  00000-0  98438-4 0  9997
2 42778  97.4410 335.3187 0011394 243.4446 116.5622 15.20642738 15535
